CCSDS_OMM_VERS = 2.0
CREATION_DATE  = 
ORIGINATOR     = 

OBJECT_NAME    = SL-14 R/B
OBJECT_ID      = 1986-046B
CENTER_NAME    = EARTH
REF_FRAME      = TEME
TIME_SYSTEM    = UTC
MEAN_ELEMENT_THEORY = SGP/SGP4

EPOCH          = 2026-01-15T17:32:13.795008
MEAN_MOTION    = 14.85527984
ECCENTRICITY   = .0024146
INCLINATION    = 82.4835
RA_OF_ASC_NODE = 130.2150
ARG_OF_PERICENTER = 45.7921
MEAN_ANOMALY   = 314.5273

EPHEMERIS_TYPE = 0
CLASSIFICATION_TYPE = U
NORAD_CAT_ID   = 16792
ELEMENT_SET_NO = 999
REV_AT_EPOCH   = 11854
BSTAR          = .34166E-4
MEAN_MOTION_DOT = .321E-5
MEAN_MOTION_DDOT = 0

CCSDS_OMM_VERS = 2.0
CREATION_DATE  = 
ORIGINATOR     = 

OBJECT_NAME    = SL-14 R/B
OBJECT_ID      = 1986-055B
CENTER_NAME    = EARTH
REF_FRAME      = TEME
TIME_SYSTEM    = UTC
MEAN_ELEMENT_THEORY = SGP/SGP4

EPOCH          = 2026-01-15T09:13:05.286144
MEAN_MOTION    = 14.85571579
ECCENTRICITY   = .0019762
INCLINATION    = 82.5206
RA_OF_ASC_NODE = 176.7574
ARG_OF_PERICENTER = 145.0145
MEAN_ANOMALY   = 238.4366

EPHEMERIS_TYPE = 0
CLASSIFICATION_TYPE = U
NORAD_CAT_ID   = 16882
ELEMENT_SET_NO = 999
REV_AT_EPOCH   = 11145
BSTAR          = .44001605E-4
MEAN_MOTION_DOT = .406E-5
MEAN_MOTION_DDOT = 0

CCSDS_OMM_VERS = 2.0
CREATION_DATE  = 
ORIGINATOR     = 

OBJECT_NAME    = AJISAI (EGS)
OBJECT_ID      = 1986-061A
CENTER_NAME    = EARTH
REF_FRAME      = TEME
TIME_SYSTEM    = UTC
MEAN_ELEMENT_THEORY = SGP/SGP4

EPOCH          = 2026-01-15T21:03:49.709952
MEAN_MOTION    = 12.44514971
ECCENTRICITY   = .0011301
INCLINATION    = 50.0078
RA_OF_ASC_NODE = 255.7469
ARG_OF_PERICENTER = 151.6526
MEAN_ANOMALY   = 296.2293

EPHEMERIS_TYPE = 0
CLASSIFICATION_TYPE = U
NORAD_CAT_ID   = 16908
ELEMENT_SET_NO = 999
REV_AT_EPOCH   = 46142
BSTAR          = .23645E-3
MEAN_MOTION_DOT = -.64E-6
MEAN_MOTION_DDOT = 0

CCSDS_OMM_VERS = 2.0
CREATION_DATE  = 
ORIGINATOR     = 

OBJECT_NAME    = COSMOS 1812
OBJECT_ID      = 1987-003A
CENTER_NAME    = EARTH
REF_FRAME      = TEME
TIME_SYSTEM    = UTC
MEAN_ELEMENT_THEORY = SGP/SGP4

EPOCH          = 2026-01-15T16:27:32.268096
MEAN_MOTION    = 15.84224290
ECCENTRICITY   = .0002756
INCLINATION    = 82.4838
RA_OF_ASC_NODE = 255.0444
ARG_OF_PERICENTER = 48.0022
MEAN_ANOMALY   = 312.1481

EPHEMERIS_TYPE = 0
CLASSIFICATION_TYPE = U
NORAD_CAT_ID   = 17295
ELEMENT_SET_NO = 999
REV_AT_EPOCH   = 13601
BSTAR          = .49937E-3
MEAN_MOTION_DOT = .113528E-2
MEAN_MOTION_DDOT = 0

CCSDS_OMM_VERS = 2.0
CREATION_DATE  = 
ORIGINATOR     = 

OBJECT_NAME    = SL-14 R/B
OBJECT_ID      = 1987-024B
CENTER_NAME    = EARTH
REF_FRAME      = TEME
TIME_SYSTEM    = UTC
MEAN_ELEMENT_THEORY = SGP/SGP4

EPOCH          = 2026-01-15T17:11:05.866368
MEAN_MOTION    = 14.86068065
ECCENTRICITY   = .0019698
INCLINATION    = 82.5301
RA_OF_ASC_NODE = 142.5388
ARG_OF_PERICENTER = 77.4419
MEAN_ANOMALY   = 282.8999

EPHEMERIS_TYPE = 0
CLASSIFICATION_TYPE = U
NORAD_CAT_ID   = 17567
ELEMENT_SET_NO = 999
REV_AT_EPOCH   = 8026
BSTAR          = .35587E-4
MEAN_MOTION_DOT = .337E-5
MEAN_MOTION_DDOT = 0

CCSDS_OMM_VERS = 2.0
CREATION_DATE  = 
ORIGINATOR     = 

OBJECT_NAME    = COSMOS 1833
OBJECT_ID      = 1987-027A
CENTER_NAME    = EARTH
REF_FRAME      = TEME
TIME_SYSTEM    = UTC
MEAN_ELEMENT_THEORY = SGP/SGP4

EPOCH          = 2026-01-15T13:20:12.998400
MEAN_MOTION    = 14.13044296
ECCENTRICITY   = .0024126
INCLINATION    = 70.9192
RA_OF_ASC_NODE = 77.6952
ARG_OF_PERICENTER = 285.0802
MEAN_ANOMALY   = 74.7650

EPHEMERIS_TYPE = 0
CLASSIFICATION_TYPE = U
NORAD_CAT_ID   = 17589
ELEMENT_SET_NO = 999
REV_AT_EPOCH   = 281
BSTAR          = .18504E-3
MEAN_MOTION_DOT = .298E-5
MEAN_MOTION_DDOT = 0

CCSDS_OMM_VERS = 2.0
CREATION_DATE  = 
ORIGINATOR     = 

OBJECT_NAME    = SL-16 R/B
OBJECT_ID      = 1987-027B
CENTER_NAME    = EARTH
REF_FRAME      = TEME
TIME_SYSTEM    = UTC
MEAN_ELEMENT_THEORY = SGP/SGP4

EPOCH          = 2026-01-15T11:18:56.073312
MEAN_MOTION    = 14.17160368
ECCENTRICITY   = .00064478
INCLINATION    = 71.0033
RA_OF_ASC_NODE = 28.6371
ARG_OF_PERICENTER = 223.8020
MEAN_ANOMALY   = 136.2593

EPHEMERIS_TYPE = 0
CLASSIFICATION_TYPE = U
NORAD_CAT_ID   = 17590
ELEMENT_SET_NO = 999
REV_AT_EPOCH   = 780
BSTAR          = -.20377781E-4
MEAN_MOTION_DOT = -.89E-6
MEAN_MOTION_DDOT = 0

CCSDS_OMM_VERS = 2.0
CREATION_DATE  = 
ORIGINATOR     = 

OBJECT_NAME    = SL-14 R/B
OBJECT_ID      = 1987-038B
CENTER_NAME    = EARTH
REF_FRAME      = TEME
TIME_SYSTEM    = UTC
MEAN_ELEMENT_THEORY = SGP/SGP4

EPOCH          = 2026-01-15T09:56:30.052608
MEAN_MOTION    = 14.85300997
ECCENTRICITY   = .0018884
INCLINATION    = 82.5025
RA_OF_ASC_NODE = 346.9801
ARG_OF_PERICENTER = 345.6201
MEAN_ANOMALY   = 14.4475

EPHEMERIS_TYPE = 0
CLASSIFICATION_TYPE = U
NORAD_CAT_ID   = 17912
ELEMENT_SET_NO = 999
REV_AT_EPOCH   = 7132
BSTAR          = .41536363E-4
MEAN_MOTION_DOT = .382E-5
MEAN_MOTION_DDOT = 0

CCSDS_OMM_VERS = 2.0
CREATION_DATE  = 
ORIGINATOR     = 

OBJECT_NAME    = COSMOS 1844
OBJECT_ID      = 1987-041A
CENTER_NAME    = EARTH
REF_FRAME      = TEME
TIME_SYSTEM    = UTC
MEAN_ELEMENT_THEORY = SGP/SGP4

EPOCH          = 2026-01-15T18:55:12.130176
MEAN_MOTION    = 14.14537573
ECCENTRICITY   = .0028278
INCLINATION    = 70.8996
RA_OF_ASC_NODE = 145.7585
ARG_OF_PERICENTER = 102.8318
MEAN_ANOMALY   = 257.5965

EPHEMERIS_TYPE = 0
CLASSIFICATION_TYPE = U
NORAD_CAT_ID   = 17973
ELEMENT_SET_NO = 999
REV_AT_EPOCH   = 99610
BSTAR          = -.11684E-3
MEAN_MOTION_DOT = -.273E-5
MEAN_MOTION_DDOT = 0

CCSDS_OMM_VERS = 2.0
CREATION_DATE  = 
ORIGINATOR     = 

OBJECT_NAME    = SL-14 R/B
OBJECT_ID      = 1987-055B
CENTER_NAME    = EARTH
REF_FRAME      = TEME
TIME_SYSTEM    = UTC
MEAN_ELEMENT_THEORY = SGP/SGP4

EPOCH          = 2026-01-15T11:13:25.743648
MEAN_MOTION    = 14.85558766
ECCENTRICITY   = .00204796
INCLINATION    = 82.4977
RA_OF_ASC_NODE = 39.1955
ARG_OF_PERICENTER = 185.2751
MEAN_ANOMALY   = 174.8253

EPHEMERIS_TYPE = 0
CLASSIFICATION_TYPE = U
NORAD_CAT_ID   = 18153
ELEMENT_SET_NO = 999
REV_AT_EPOCH   = 6203
BSTAR          = .3449847E-4
MEAN_MOTION_DOT = .324E-5
MEAN_MOTION_DDOT = 0

CCSDS_OMM_VERS = 2.0
CREATION_DATE  = 
ORIGINATOR     = 

OBJECT_NAME    = COSMOS 1867
OBJECT_ID      = 1987-060A
CENTER_NAME    = EARTH
REF_FRAME      = TEME
TIME_SYSTEM    = UTC
MEAN_ELEMENT_THEORY = SGP/SGP4

EPOCH          = 2026-01-15T15:01:05.991456
MEAN_MOTION    = 14.31492657
ECCENTRICITY   = .0013859
INCLINATION    = 65.0111
RA_OF_ASC_NODE = 95.3092
ARG_OF_PERICENTER = 274.4219
MEAN_ANOMALY   = 85.5282

EPHEMERIS_TYPE = 0
CLASSIFICATION_TYPE = U
NORAD_CAT_ID   = 18187
ELEMENT_SET_NO = 999
REV_AT_EPOCH   = 1234
BSTAR          = .15433E-4
MEAN_MOTION_DOT = -.59E-6
MEAN_MOTION_DDOT = 0

CCSDS_OMM_VERS = 2.0
CREATION_DATE  = 
ORIGINATOR     = 

OBJECT_NAME    = SL-14 R/B
OBJECT_ID      = 1988-001B
CENTER_NAME    = EARTH
REF_FRAME      = TEME
TIME_SYSTEM    = UTC
MEAN_ELEMENT_THEORY = SGP/SGP4

EPOCH          = 2026-01-15T17:29:36.610080
MEAN_MOTION    = 14.85461707
ECCENTRICITY   = .0019368
INCLINATION    = 82.5113
RA_OF_ASC_NODE = 245.1792
ARG_OF_PERICENTER = 56.1676
MEAN_ANOMALY   = 304.1380

EPHEMERIS_TYPE = 0
CLASSIFICATION_TYPE = U
NORAD_CAT_ID   = 18749
ELEMENT_SET_NO = 999
REV_AT_EPOCH   = 3416
BSTAR          = .29965E-4
MEAN_MOTION_DOT = .284E-5
MEAN_MOTION_DDOT = 0

