SL-14 R/B               
1 16792U 86046B   26015.73071522  .00000321  00000+0  34166-4 0  9999
2 16792  82.4835 130.2150 0024146  45.7921 314.5273 14.85527984118541
SL-14 R/B               
1 16882U 86055B   26015.38408896  .00000406  00000+0  44002-4 0  9992
2 16882  82.5206 176.7574 0019762 145.0145 238.4366 14.85571579111458
AJISAI (EGS)            
1 16908U 86061A   26015.87765868 -.00000064  00000+0  23645-3 0  9997
2 16908  50.0078 255.7469 0011301 151.6526 296.2293 12.44514971461424
COSMOS 1812             
1 17295U 87003A   26015.68579014  .00113528  00000+0  49937-3 0  9990
2 17295  82.4838 255.0444 0002756  48.0022 312.1481 15.84224290136017
SL-14 R/B               
1 17567U 87024B   26015.71604012  .00000337  00000+0  35587-4 0  9996
2 17567  82.5301 142.5388 0019698  77.4419 282.8999 14.86068065 80260
COSMOS 1833             
1 17589U 87027A   26015.55570600  .00000298  00000+0  18504-3 0  9995
2 17589  70.9192  77.6952 0024126 285.0802  74.7650 14.13044296  2810
SL-16 R/B               
1 17590U 87027B   26015.47148233 -.00000089  00000+0 -20378-4 0  9994
2 17590  71.0033  28.6371 0006447 223.8020 136.2593 14.17160368  7804
SL-14 R/B               
1 17912U 87038B   26015.41423672  .00000382  00000+0  41536-4 0  9994
2 17912  82.5025 346.9801 0018884 345.6201  14.4475 14.85300997 71329
COSMOS 1844             
1 17973U 87041A   26015.78833484 -.00000273  00000+0 -11684-3 0  9992
2 17973  70.8996 145.7585 0028278 102.8318 257.5965 14.14537573996107
SL-14 R/B               
1 18153U 87055B   26015.46765907  .00000324  00000+0  34498-4 0  9991
2 18153  82.4977  39.1955 0020479 185.2751 174.8253 14.85558766 62036
COSMOS 1867             
1 18187U 87060A   26015.62576379 -.00000059  00000+0  15433-4 0  9999
2 18187  65.0111  95.3092 0013859 274.4219  85.5282 14.31492657 12346
SL-14 R/B               
1 18749U 88001B   26015.72889595  .00000284  00000+0  29965-4 0  9991
2 18749  82.5113 245.1792 0019368  56.1676 304.1380 14.85461707 34165
